     2.100          NAVIGATION                              RINEX VERSION / TYPE
fic2rin                                 10/26/2015 00:04:16 PGM / RUN BY / DATE
                                                            END OF HEADER
 9 15 10 25 18  0  0.0  .144774094224D-05  .443378667114D-11  .000000000000D+00
     .390000000000D+02  .118406250000D+03  .483663003648D-08 -.899137195759D+00
     .608898699284D-05  .376088661142D-03  .680238008499D-05  .515371083641D+04
     .648000000000D+05  .298023223877D-07 -.259989225682D+01 -.372529029846D-07
     .956630559457D+00  .244187500000D+03  .237196920021D+01 -.843677999718D-08
     .455733268834D-09  .100000000000D+01  .186800000000D+04  .000000000000D+00
     .240000000000D+01  .000000000000D+00  .931322574615D-09  .390000000000D+02
     .576060000000D+05  .400000000000D+01
11 15 10 25 18  0  0.0 -.612311065197D-03 -.216004991671D-11  .000000000000D+00
     .780000000000D+02 -.843750000000D+01  .674349517936D-08 -.313901381282D+01
    -.590458512306D-06  .163115586620D-01  .174529850483D-05  .515362601471D+04
     .648000000000D+05  .262632966042D-06  .123930799920D+01 -.558793544769D-07
     .894080113248D+00  .307562500000D+03  .147289519959D+01 -.917395356056D-08
     .367872466222D-10  .100000000000D+01  .186800000000D+04  .000000000000D+00
     .240000000000D+01  .000000000000D+00 -.121071934700D-07  .780000000000D+02
     .576060000000D+05  .400000000000D+01
12 15 10 25 18  0  0.0  .339884776622D-03  .318323145621D-11  .000000000000D+00
     .111000000000D+03 -.414062500000D+02  .337156901081D-08  .260543839869D+01
    -.213831663132D-05  .551840953995D-02  .131540000439D-04  .515359587097D+04
     .648000000000D+05 -.223517417908D-07 -.450455930109D+00 -.782310962677D-07
     .990437828237D+00  .141093750000D+03  .643463899814D+00 -.745138180853D-08
     .207151485834D-10  .100000000000D+01  .186800000000D+04  .000000000000D+00
     .240000000000D+01  .000000000000D+00 -.125728547573D-07  .111000000000D+03
     .576060000000D+05  .400000000000D+01
13 15 10 25 18  0  0.0 -.159399583936D-03 -.284217094304D-11  .000000000000D+00
     .240000000000D+02  .100250000000D+03  .445411410316D-08 -.234802250984D+01
     .515766441822D-05  .466213247273D-02  .553950667381D-05  .515368540955D+04
     .648000000000D+05 -.558793544769D-08 -.248245278634D+01  .949949026108D-07
     .973117518936D+00  .280031250000D+03  .205234115618D+01 -.817319758934D-08
     .338585532018D-09  .100000000000D+01  .186800000000D+04  .000000000000D+00
     .240000000000D+01  .000000000000D+00 -.111758708954D-07  .240000000000D+02
     .576060000000D+05  .400000000000D+01
14 15 10 25 18  0  0.0  .258944928646D-04 -.238742359215D-11  .000000000000D+00
     .140000000000D+02  .998750000000D+02  .480912889095D-08 -.442203402952D+00
     .527501106262D-05  .842548068613D-02  .539980828762D-05  .515367193604D+04
     .648000000000D+05  .186264514923D-07 -.251808287884D+01  .122934579849D-06
     .965637416914D+00  .280968750000D+03 -.195076458188D+01 -.856357099282D-08
     .381801617856D-09  .100000000000D+01  .186800000000D+04  .000000000000D+00
     .240000000000D+01  .000000000000D+00 -.931322574615D-08  .140000000000D+02
     .576060000000D+05  .400000000000D+01
15 15 10 25 18  0  0.0 -.278718769550D-03 -.204636307899D-11  .000000000000D+00
     .720000000000D+02  .107281250000D+03  .526164774018D-08 -.114867595979D+01
     .560097396374D-05  .761869922280D-02  .654160976410D-05  .515374154663D+04
     .648000000000D+05  .121071934700D-06 -.264719634928D+01 -.577419996262D-07
     .932478137457D+00  .238656250000D+03  .420531993463D+00 -.859035782288D-08
     .394659296287D-09  .100000000000D+01  .186800000000D+04  .000000000000D+00
     .240000000000D+01  .000000000000D+00 -.107102096081D-07  .720000000000D+02
     .576060000000D+05  .400000000000D+01
16 15 10 25 18  0  0.0 -.729598104954D-04  .375166564481D-11  .000000000000D+00
     .700000000000D+02 -.307500000000D+02  .338264090057D-08  .582829412544D+00
    -.151991844177D-05  .814494385850D-02  .143013894558D-04  .515365487289D+04
     .648000000000D+05  .633299350739D-07 -.431743440670D+00  .180676579475D-06
     .990977405089D+00  .118812500000D+03  .317386430750D+00 -.756745807215D-08
    -.142863093678D-11  .100000000000D+01  .186800000000D+04  .000000000000D+00
     .240000000000D+01  .000000000000D+00 -.102445483208D-07  .700000000000D+02
     .576060000000D+05  .400000000000D+01
17 15 10 25 18  0  0.0 -.192052219063D-03 -.113686837722D-11  .000000000000D+00
     .990000000000D+02  .668437500000D+02  .462554981557D-08 -.394982110190D+00
     .359490513802D-05  .105273576919D-01  .758655369282D-05  .515357964325D+04
     .648000000000D+05 -.968575477600D-07  .592067542721D+00  .856816768646D-07
     .974075345531D+00  .244593750000D+03 -.200207382367D+01 -.833891877801D-08
     .675385275365D-09  .100000000000D+01  .186800000000D+04  .000000000000D+00
     .340000000000D+01  .000000000000D+00 -.107102096081D-07  .990000000000D+02
     .576060000000D+05  .400000000000D+01
18 15 10 25 18  0  0.0  .446451362222D-03  .363797880709D-11  .000000000000D+00
     .640000000000D+02 -.112187500000D+02  .523057501730D-08  .114669566025D+01
    -.549480319023D-06  .163614851190D-01  .135097652674D-04  .515364808464D+04
     .648000000000D+05 -.342726707458D-06  .261673728744D+01 -.111758708954D-07
     .925323648816D+00  .106968750000D+03 -.193292108041D+01 -.856035657321D-08
    -.337514058815D-09  .100000000000D+01  .186800000000D+04  .000000000000D+00
     .240000000000D+01  .000000000000D+00 -.111758708954D-07  .640000000000D+02
     .576060000000D+05  .400000000000D+01
19 15 10 25 18  0  0.0 -.521965324879D-03 -.454747350886D-12  .000000000000D+00
     .440000000000D+02  .713437500000D+02  .463090718159D-08 -.213145541919D+01
     .336766242981D-05  .113432575017D-01  .664964318275D-05  .515515070534D+04
     .648000000000D+05  .121071934700D-06  .641253639794D+00 -.150874257088D-06
     .971100740072D+00  .253906250000D+03  .656889078547D+00 -.811605235187D-08
     .795747431789D-09  .100000000000D+01  .186800000000D+04  .000000000000D+00
     .240000000000D+01  .000000000000D+00 -.149011611938D-07  .440000000000D+02
     .576060000000D+05  .400000000000D+01
20 15 10 25 18  0  0.0  .365912448615D-03  .295585778076D-11  .000000000000D+00
     .710000000000D+02 -.154375000000D+02  .507914013800D-08 -.108434188875D+01
    -.726431608200D-06  .498154817615D-02  .125933438540D-04  .515366589165D+04
     .648000000000D+05 -.223517417908D-07  .256463889205D+01  .121071934700D-06
     .926506545357D+00  .119531250000D+03  .125466443022D+01 -.831106047474D-08
    -.325370695853D-09  .100000000000D+01  .186800000000D+04  .000000000000D+00
     .240000000000D+01  .000000000000D+00 -.838190317154D-08  .710000000000D+02
     .576060000000D+05  .400000000000D+01
22 15 10 25 18  0  0.0  .404272694141D-03  .363797880709D-11  .000000000000D+00
     .910000000000D+02 -.403125000000D+01  .532522181686D-08  .661485072686D+00
    -.122934579849D-06  .799293932505D-02  .132471323013D-04  .515368343353D+04
     .648000000000D+05 -.540167093277D-07  .261763251723D+01  .502914190292D-07
     .923155425746D+00  .106937500000D+03 -.204641856159D+01 -.850535428215D-08
    -.339299847486D-09  .100000000000D+01  .186800000000D+04  .000000000000D+00
     .340000000000D+01  .000000000000D+00 -.176951289177D-07  .910000000000D+02
     .576060000000D+05  .400000000000D+01
23 15 10 25 18  0  0.0 -.140826217830D-03 -.216004991671D-11  .000000000000D+00
     .280000000000D+02  .119437500000D+03  .501556606132D-08 -.159913605336D+01
     .603683292866D-05  .103938438697D-01  .615604221821D-05  .515378306007D+04
     .648000000000D+05  .109896063805D-06 -.259268263811D+01 -.189989805222D-06
     .947611514429D+00  .252375000000D+03 -.262427717600D+01 -.842142221461D-08
     .546808491054D-09  .100000000000D+01  .186800000000D+04  .000000000000D+00
     .240000000000D+01  .000000000000D+00 -.200234353542D-07  .280000000000D+02
     .576060000000D+05  .400000000000D+01
24 15 10 25 18  0  0.0 -.691041350365D-05 -.568434188608D-12  .000000000000D+00
     .700000000000D+02 -.666250000000D+02  .501378027264D-08 -.224702379404D+01
    -.339560210705D-05  .359236076474D-02  .325776636600D-05  .515364883995D+04
     .648000000000D+05 -.223517417908D-07 -.156570136495D+01 -.502914190292D-07
     .951530227236D+00  .312562500000D+03  .293254296499D+00 -.859964392397D-08
    -.305012705003D-09  .100000000000D+01  .186800000000D+04  .000000000000D+00
     .240000000000D+01  .000000000000D+00  .279396772385D-08  .700000000000D+02
     .576060000000D+05  .400000000000D+01
25 15 10 25 18  0  0.0 -.576712191105D-04 -.557065504836D-11  .000000000000D+00
     .108000000000D+03 -.474375000000D+02  .368729644784D-08  .196652331976D+01
    -.246055424213D-05  .466878770385D-02  .130198895931D-04  .515361774063D+04
     .648000000000D+05 -.819563865662D-07 -.498813131946D+00 -.521540641785D-07
     .978802156730D+00  .137312500000D+03  .727056005852D+00 -.766781939546D-08
    -.525021869268D-10  .100000000000D+01  .186800000000D+04  .000000000000D+00
     .240000000000D+01  .000000000000D+00  .558793544769D-08  .108000000000D+03
     .576060000000D+05  .400000000000D+01
26 15 10 25 18  0  0.0 -.971141271293D-04 -.139834810398D-10  .000000000000D+00
     .530000000000D+02 -.484687500000D+02  .407695553585D-08  .155680750036D+01
    -.253319740295D-05  .254754559137D-03  .138469040394D-04  .515366423035D+04
     .648000000000D+05 -.242143869400D-07 -.504030636591D+00 -.372529029846D-08
     .960857416940D+00  .111656250000D+03 -.172459245974D+00 -.784425531615D-08
    -.689314426998D-10  .100000000000D+01  .186800000000D+04  .000000000000D+00
     .240000000000D+01  .000000000000D+00  .745058059692D-08  .530000000000D+02
     .576060000000D+05  .400000000000D+01
